STARLINK-33858          
1 63885U 25094X   26038.91327895 -.00039160  00000+0 -32963-2 0  9998
2 63885  70.0005 309.5035 0002909 244.0399 116.0460 14.98285658 42741
STARLINK-33885          
1 63886U 25094Y   26038.89658678  .00006697  00000+0  56854-3 0  9995
2 63886  70.0004 309.4459 0003571 274.7599  85.3152 14.98330378 42744
STARLINK-33904          
1 63887U 25094Z   26038.95949126 -.00655318  00000+0 -60197-1 0  9999
2 63887  70.0017 309.2646 0010616 161.2080 198.9472 14.97298393 42754
STARLINK-33981          
1 63888U 25094AA  26038.93014330  .00009161  00000+0  77441-3 0  9997
2 63888  70.0019 309.5606 0002647 257.6159 102.4704 14.98339209 42748
STARLINK-33738          
1 63889U 25094AB  26038.91763362  .00011219  00000+0  94672-3 0  9994
2 63889  70.0014 309.4932 0003051 268.9038  91.1772 14.98323178 42967
STARLINK-34116          
1 63890U 25095A   26038.20477710  .00050498  00000+0  18308-2 0  9991
2 63890  43.0006 348.5519 0001731 264.5921  95.4733 15.27603061 43129
STARLINK-34123          
1 63891U 25095B   26038.28429994  .00046846  00000+0  16987-2 0  9994
2 63891  43.0032 348.2893 0000696 230.6580 129.4210 15.27627015 43139
STARLINK-34128          
1 63892U 25095C   26037.27394321  .00026400  00000+0  96635-3 0  9991
2 63892  43.0020 353.6010 0001547 262.7537  97.3138 15.27548747 42980
STARLINK-33972          
1 63893U 25095D   26038.26245295  .00039773  00000+0  14462-2 0  9991
2 63893  43.0002 348.1214 0002184 244.0725 115.9901 15.27598274 43139
STARLINK-33973          
1 63894U 25095E   26036.98410683 -.00046378  00000+0 -16870-2 0  9990
2 63894  42.9984 354.8590 0001682 121.4259 238.6757 15.27566522 42941
STARLINK-34119          
1 63895U 25095F   26038.27658704  .00035512  00000+0  12936-2 0  9998
2 63895  42.9968 348.2314 0001997 240.9972 119.0679 15.27582889 43134
STARLINK-34143          
1 63896U 25095G   26037.27008439  .00023461  00000+0  86058-3 0  9999
2 63896  43.0042 353.5688 0001585 259.8970 100.1703 15.27533183 42987
STARLINK-33957          
1 63897U 25095H   26038.93429824  .00026619  00000+0  97282-3 0  9998
2 63897  42.9981 344.5630 0000998 253.9253 106.1488 15.27597809 43220
STARLINK-34120          
1 63898U 25095J   26038.94186604  .00005752  00000+0  21831-3 0  9998
2 63898  43.0025 343.7518 0001070 259.1778 100.8953 15.27588737 43240
STARLINK-34134          
1 63899U 25095K   26038.20092171  .00045066  00000+0  16359-2 0  9993
2 63899  43.0013 348.5189 0001764 255.5062 104.5594 15.27604967 43124
STARLINK-34118          
1 63900U 25095L   26038.20736115  .00047994  00000+0  17428-2 0  9999
2 63900  43.0002 348.5687 0001424 275.2911  84.7778 15.27569255 43126
STARLINK-34125          
1 63901U 25095M   26038.25860848  .00054751  00000+0  19823-2 0  9996
2 63901  43.0042 348.0866 0001557 271.4975  88.5698 15.27614990 43120
STARLINK-33955          
1 63902U 25095N   26037.96749730  .00050878  00000+0  18459-2 0  9990
2 63902  43.0017 349.3403 0001007 272.7110  87.3626 15.27575774 43088
STARLINK-34097          
1 63903U 25095P   26037.92137801  .00053379  00000+0  19359-2 0  9996
2 63903  43.0049 349.8544 0002697 240.0802 119.9782 15.27568081 43074
STARLINK-34092          
1 63904U 25095Q   26038.27786706  .00032668  00000+0  11904-2 0  9996
2 63904  42.9952 348.2355 0000880 272.7619  87.3132 15.27606311 43121
STARLINK-34114          
1 63905U 25095R   26038.22019674  .00041995  00000+0  15269-2 0  9996
2 63905  43.0000 348.6660 0001417 279.0464  81.0227 15.27579837 43113
STARLINK-33770          
1 63906U 25095S   26037.25723102  .00060878  00000+0  22059-2 0  9993
2 63906  43.0034 353.4693 0002141 266.8781  93.1826 15.27545375 42974
STARLINK-34106          
1 63907U 25095T   26038.23418575  .00037108  00000+0  13509-2 0  9998
2 63907  42.9965 347.9033 0000325 178.0598 182.0255 15.27588543 43120
STARLINK-34083          
1 63908U 25095U   26038.28173678  .00034339  00000+0  12513-2 0  9993
2 63908  43.0043 348.2653 0001050 333.8972  26.1826 15.27588214 43122
STARLINK-34066          
1 63909U 25095V   26038.26758271  .00046980  00000+0  17025-2 0  9998
2 63909  42.9968 348.1555 0000832 195.3266 164.7560 15.27645025 43129
STARLINK-34071          
1 63910U 25095W   26038.20863199  .00054847  00000+0  19868-2 0  9998
2 63910  42.9981 348.5777 0001390 298.4511  61.6201 15.27597135 43118
STARLINK-34038          
1 63911U 25095X   26038.25987206  .00049030  00000+0  17784-2 0  9993
2 63911  43.0003 348.0944 0004821 239.0815 120.9563 15.27590210 43125
STARLINK-34031          
1 63912U 25095Y   26038.26374619  .00033369  00000+0  12161-2 0  9995
2 63912  43.0004 348.1275 0000768 313.5047  46.5741 15.27594268 43124
STARLINK-34070          
1 63913U 25095Z   26038.19064785  .00030650  00000+0  11185-2 0  9993
2 63913  43.0022 348.4365 0001011 314.4742  45.6027 15.27586405 43112
STARLINK-34068          
1 63914U 25095AA  26038.24574928  .00050536  00000+0  18320-2 0  9998
2 63914  43.0034 347.9871 0001809 268.7771  91.2874 15.27604348 43125
