OBJECT_NAME,OBJECT_ID,EPOCH,MEAN_MOTION,ECCENTRICITY,INCLINATION,RA_OF_ASC_NODE,ARG_OF_PERICENTER,MEAN_ANOMALY,EPHEMERIS_TYPE,CLASSIFICATION_TYPE,NORAD_CAT_ID,ELEMENT_SET_NO,REV_AT_EPOCH,BSTAR,MEAN_MOTION_DOT,MEAN_MOTION_DDOT
STARLINK-33858,2025-094X,2026-02-07T21:55:07.301280,14.98285658,.00029095,70.0005,309.5035,244.0399,116.0460,0,U,63885,999,4274,-.32962943E-2,-.3916E-3,0
STARLINK-33885,2025-094Y,2026-02-07T21:31:05.097792,14.98330378,.00035718,70.0004,309.4459,274.7599,85.3152,0,U,63886,999,4274,.5685404E-3,.6697E-4,0
STARLINK-33904,2025-094Z,2026-02-07T23:01:40.044864,14.97298393,.00106169,70.0017,309.2646,161.2080,198.9472,0,U,63887,999,4275,-.60197197E-1,-.655318E-2,0
STARLINK-33981,2025-094AA,2026-02-07T22:19:24.381120,14.98339209,.00026473,70.0019,309.5606,257.6159,102.4704,0,U,63888,999,4274,.77440835E-3,.9161E-4,0
STARLINK-33738,2025-094AB,2026-02-07T22:01:23.544768,14.98323178,.00030511,70.0014,309.4932,268.9038,91.1772,0,U,63889,999,4296,.94671699E-3,.11219E-3,0
STARLINK-34116,2025-095A,2026-02-07T04:54:52.741440,15.27603061,.0001731,43.0006,348.5519,264.5921,95.4733,0,U,63890,999,4312,.18308E-2,.50498E-3,0
STARLINK-34123,2025-095B,2026-02-07T06:49:23.514816,15.27627015,.0000696,43.0032,348.2893,230.6580,129.4210,0,U,63891,999,4313,.16987E-2,.46846E-3,0
STARLINK-34128,2025-095C,2026-02-06T06:34:28.693344,15.27548747,.00015472,43.0020,353.6010,262.7537,97.3138,0,U,63892,999,4298,.96634845E-3,.264E-3,0
STARLINK-33972,2025-095D,2026-02-07T06:17:55.934880,15.27598274,.0002184,43.0002,348.1214,244.0725,115.9901,0,U,63893,999,4313,.14462E-2,.39773E-3,0
STARLINK-33973,2025-095E,2026-02-05T23:37:06.830112,15.27566522,.00016822,42.9984,354.8590,121.4259,238.6757,0,U,63894,999,4294,-.16870047E-2,-.46378E-3,0
STARLINK-34119,2025-095F,2026-02-07T06:38:17.120256,15.27582889,.0001997,42.9968,348.2314,240.9972,119.0679,0,U,63895,999,4313,.12936E-2,.35512E-3,0
STARLINK-34143,2025-095G,2026-02-06T06:28:55.291296,15.27533183,.0001585,43.0042,353.5688,259.8970,100.1703,0,U,63896,999,4298,.86058E-3,.23461E-3,0
STARLINK-33957,2025-095H,2026-02-07T22:25:23.367936,15.27597809,.00009989,42.9981,344.5630,253.9253,106.1488,0,U,63897,999,4322,.97282215E-3,.26619E-3,0
STARLINK-34120,2025-095J,2026-02-07T22:36:17.225856,15.27588737,.00010709,43.0025,343.7518,259.1778,100.8953,0,U,63898,999,4324,.21830823E-3,.5752E-4,0
STARLINK-34134,2025-095K,2026-02-07T04:49:19.635744,15.27604967,.0001764,43.0013,348.5189,255.5062,104.5594,0,U,63899,999,4312,.16359E-2,.45066E-3,0
STARLINK-34118,2025-095L,2026-02-07T04:58:36.003360,15.27569255,.0001424,43.0002,348.5687,275.2911,84.7778,0,U,63900,999,4312,.17428E-2,.47994E-3,0
STARLINK-34125,2025-095M,2026-02-07T06:12:23.772672,15.27614990,.0001557,43.0042,348.0866,271.4975,88.5698,0,U,63901,999,4312,.19823E-2,.54751E-3,0
STARLINK-33955,2025-095N,2026-02-06T23:13:11.766720,15.27575774,.0001007,43.0017,349.3403,272.7110,87.3626,0,U,63902,999,4308,.18459E-2,.50878E-3,0
STARLINK-34097,2025-095P,2026-02-06T22:06:47.060064,15.27568081,.0002697,43.0049,349.8544,240.0802,119.9782,0,U,63903,999,4307,.19359E-2,.53379E-3,0
STARLINK-34092,2025-095Q,2026-02-07T06:40:07.713984,15.27606311,.000088,42.9952,348.2355,272.7619,87.3132,0,U,63904,999,4312,.11904E-2,.32668E-3,0
STARLINK-34114,2025-095R,2026-02-07T05:17:04.998336,15.27579837,.0001417,43.0000,348.6660,279.0464,81.0227,0,U,63905,999,4311,.15269E-2,.41995E-3,0
STARLINK-33770,2025-095S,2026-02-06T06:10:24.760128,15.27545375,.0002141,43.0034,353.4693,266.8781,93.1826,0,U,63906,999,4297,.22059E-2,.60878E-3,0
STARLINK-34106,2025-095T,2026-02-07T05:37:13.648800,15.27588543,.0000325,42.9965,347.9033,178.0598,182.0255,0,U,63907,999,4312,.13509E-2,.37108E-3,0
STARLINK-34083,2025-095U,2026-02-07T06:45:42.057792,15.27588214,.000105,43.0043,348.2653,333.8972,26.1826,0,U,63908,999,4312,.12513E-2,.34339E-3,0
STARLINK-34066,2025-095V,2026-02-07T06:25:19.146144,15.27645025,.0000832,42.9968,348.1555,195.3266,164.7560,0,U,63909,999,4312,.17025E-2,.4698E-3,0
STARLINK-34071,2025-095W,2026-02-07T05:00:25.803936,15.27597135,.000139,42.9981,348.5777,298.4511,61.6201,0,U,63910,999,4311,.19868E-2,.54847E-3,0
STARLINK-34038,2025-095X,2026-02-07T06:14:12.945984,15.27590210,.0004821,43.0003,348.0944,239.0815,120.9563,0,U,63911,999,4312,.17784E-2,.4903E-3,0
STARLINK-34031,2025-095Y,2026-02-07T06:19:47.670816,15.27594268,.0000768,43.0004,348.1275,313.5047,46.5741,0,U,63912,999,4312,.12161E-2,.33369E-3,0
STARLINK-34070,2025-095Z,2026-02-07T04:34:31.974240,15.27586405,.00010118,43.0022,348.4365,314.4742,45.6027,0,U,63913,999,4311,.11184902E-2,.3065E-3,0
STARLINK-34068,2025-095AA,2026-02-07T05:53:52.737792,15.27604348,.0001809,43.0034,347.9871,268.7771,91.2874,0,U,63914,999,4312,.1832E-2,.50536E-3,0
